{
    "links": {
        "self": "http://www.neowsapp.com/rest/v1/neo/3467220?api_key=iIulBulltgU6a56xZRHN4H3l9WmuAYTsLGpBGhQ2"
    },
    "id": "3467220",
    "neo_reference_id": "3467220",
    "name": "(2009 SD1)",
    "designation": "2009 SD1",
    "nasa_jpl_url": "http://ssd.jpl.nasa.gov/sbdb.cgi?sstr=3467220",
    "absolute_magnitude_h": 22.3,
    "estimated_diameter": {
        "kilometers": {
            "estimated_diameter_min": 0.0921626549,
            "estimated_diameter_max": 0.2060819612
        },
        "meters": {
            "estimated_diameter_min": 92.1626548503,
            "estimated_diameter_max": 206.0819612321
        },
        "miles": {
            "estimated_diameter_min": 0.057267201,
            "estimated_diameter_max": 0.1280533543
        },
        "feet": {
            "estimated_diameter_min": 302.370924539,
            "estimated_diameter_max": 676.1219416887
        }
    },
    "is_potentially_hazardous_asteroid": false,
    "close_approach_data": [
        {
            "close_approach_date": "2009-09-22",
            "close_approach_date_full": "2009-Sep-22 23:16",
            "epoch_date_close_approach": 1253661360000,
            "relative_velocity": {
                "kilometers_per_second": "21.6095651286",
                "kilometers_per_hour": "77794.4344630108",
                "miles_per_hour": "48338.4362361969"
            },
            "miss_distance": {
                "astronomical": "0.055145978",
                "lunar": "21.451785442",
                "kilometers": "8249720.84786686",
                "miles": "5126138.832648268"
            },
            "orbiting_body": "Earth"
        }
    ],
    "orbital_data": {
        "orbit_id": "8",
        "orbit_determination_date": "2017-04-06 09:00:00",
        "first_observation_date": "2009-09-17",
        "last_observation_date": "2009-09-23",
        "data_arc_in_days": 6,
        "observations_used": 28,
        "orbit_uncertainty": "9",
        "minimum_orbit_intersection": ".025199",
        "jupiter_tisserand_invariant": "3.860",
        "epoch_osculation": "2455094.5",
        "eccentricity": ".5069694442449477",
        "semi_major_axis": "1.72354566956836",
        "inclination": "32.09579987978661",
        "ascending_node_longitude": "1.072858722662551",
        "orbital_period": "826.4805171005605",
        "perihelion_distance": ".8497606793365022",
        "perihelion_argument": "61.84023821319861",
        "aphelion_distance": "2.597330659800218",
        "perihelion_time": "2455141.569322172325",
        "mean_anomaly": "339.4974525939427",
        "mean_motion": ".4355819557162019",
        "equinox": "J2000",
        "orbit_class": {
            "orbit_class_type": "APO",
            "orbit_class_description": "Near-Earth asteroid orbits which cross the Earth’s orbit similar to that of 1862 Apollo",
            "orbit_class_range": "a (semi-major axis) > 1.0 AU; q (perihelion) < 1.017 AU"
        }
    },
    "is_sentry_object": false
}